{"spkid": "50646757", "covariance": {"epoch": "2456835.5", "labels": ["e", "q", "tp", "node", "peri", "i"], "elements": [{"label": "e", "value": ".6188126492513227", "title": "eccentricity", "units": null, "sigma": 3.72688822874601e-07, "name": "e"}, {"label": "q", "title": "perihelion distance", "value": ".5760113032394818", "units": "au", "name": "q", "sigma": 6.1509291373814e-07}, {"label": "tp", "sigma": 0.000100345977128959, "name": "tp", "units": "TDB", "value": "2457142.347805305070", "title": "time of perihelion passage"}, {"units": "deg", "title": "longitude of the ascending node", "value": "250.6236132392734", "name": "om", "sigma": 0.000289832517626465, "label": "node"}, {"label": "peri", "units": "deg", "title": "argument of perihelion", "value": "332.5337299646959", "sigma": 0.000308036933075646, "name": "w"}, {"label": "i", "units": "deg", "value": "2.144057325542511", "title": "inclination", "sigma": 1.3825495922283e-05, "name": "i"}], "data": [["1.388969586956554E-13", "-2.291263150412973E-13", "3.149399278951287E-11", "-1.793313410094623E-11", "4.147204929110082E-11", "-4.650943883293866E-12"], ["-2.291263150412973E-13", "3.783392925308743E-13", "-5.107057777598948E-11", "2.948378590356001E-11", "-6.809170192168136E-11", "7.65395114039576E-12"], ["3.149399278951287E-11", "-5.107057777598948E-11", "1.006931512596563E-8", "-4.544815069746878E-9", "1.09392223470101E-8", "-1.162105398620078E-9"], ["-1.793313410094623E-11", "2.948378590356001E-11", "-4.544815069746878E-9", "8.400288827369517E-8", "-8.720311055433614E-8", "9.810844531951401E-10"], ["4.147204929110082E-11", "-6.809170192168136E-11", "1.09392223470101E-8", "-8.720311055433614E-8", "9.488675213864977E-8", "-1.821701747978216E-9"], ["-4.650943883293866E-12", "7.65395114039576E-12", "-1.162105398620078E-9", "9.810844531951401E-10", "-1.821701747978216E-9", "1.911443374970645E-10"]]}, "elements": [{"label": "e", "name": "e", "sigma": "3.7794E-7", "units": null, "title": "eccentricity", "value": ".6187038179964639"}, {"label": "a", "value": "1.510609665258387", "title": "semi-major axis", "units": "au", "name": "a", "sigma": "1.1883E-7"}, {"label": "q", "sigma": "6.1435E-7", "name": "q", "units": "au", "value": ".5759896978606626", "title": "perihelion distance"}, {"label": "i", "sigma": "1.3837E-5", "name": "i", "units": "deg", "value": "2.15030320906921", "title": "inclination; angle with respect to x-y ecliptic plane"}, {"value": "250.4252660843611", "title": "longitude of the ascending node", "units": "deg", "sigma": ".00028825", "name": "om", "label": "node"}, {"title": "argument of perihelion", "value": "332.7854337768645", "units": "deg", "sigma": ".00030576", "name": "w", "label": "peri"}, {"label": "M", "name": "ma", "sigma": ".000269", "title": "mean anomaly", "value": "353.2549022812829", "units": "deg"}, {"name": "tp", "sigma": ".0005082", "units": "TDB", "title": "time of perihelion passage", "value": "2461213.206108530459", "label": "tp"}, {"label": "period", "units": "d", "value": "678.1516386741486", "title": "sidereal orbital period", "sigma": "8.0021E-5", "name": "per"}, {"label": "n", "sigma": "6.264E-8", "name": "n", "units": "deg/d", "title": "mean motion", "value": ".5308547225570884"}, {"name": "ad", "sigma": "1.9236E-7", "title": "aphelion distance", "value": "2.445229632656111", "units": "au", "label": "Q"}], "epoch": "2461200.5"}